CCSDS_OMM_VERS = 2.0
CREATION_DATE  = 
ORIGINATOR     = 

OBJECT_NAME    = ATLAS CENTAUR R/B
OBJECT_ID      = 1972-065B
CENTER_NAME    = EARTH
REF_FRAME      = TEME
TIME_SYSTEM    = UTC
MEAN_ELEMENT_THEORY = SGP/SGP4

EPOCH          = 2025-11-30T21:36:58.701024
MEAN_MOTION    = 14.77356061
ECCENTRICITY   = .00345767
INCLINATION    = 34.9996
RA_OF_ASC_NODE = 164.5470
ARG_OF_PERICENTER = 259.6120
MEAN_ANOMALY   = 100.0682

EPHEMERIS_TYPE = 0
CLASSIFICATION_TYPE = U
NORAD_CAT_ID   = 6155
ELEMENT_SET_NO = 999
REV_AT_EPOCH   = 82664
BSTAR          = .16405782E-3
MEAN_MOTION_DOT = .1174E-4
MEAN_MOTION_DDOT = 0

CCSDS_OMM_VERS = 2.0
CREATION_DATE  = 
ORIGINATOR     = 

OBJECT_NAME    = SL-8 R/B
OBJECT_ID      = 1975-112B
CENTER_NAME    = EARTH
REF_FRAME      = TEME
TIME_SYSTEM    = UTC
MEAN_ELEMENT_THEORY = SGP/SGP4

EPOCH          = 2025-12-01T01:47:19.785984
MEAN_MOTION    = 14.38133182
ECCENTRICITY   = .0016368
INCLINATION    = 74.0595
RA_OF_ASC_NODE = 200.3141
ARG_OF_PERICENTER = 313.0233
MEAN_ANOMALY   = 46.9549

EPHEMERIS_TYPE = 0
CLASSIFICATION_TYPE = U
NORAD_CAT_ID   = 8459
ELEMENT_SET_NO = 999
REV_AT_EPOCH   = 61769
BSTAR          = .10506896E-3
MEAN_MOTION_DOT = .293E-5
MEAN_MOTION_DDOT = 0

CCSDS_OMM_VERS = 2.0
CREATION_DATE  = 
ORIGINATOR     = 

OBJECT_NAME    = SL-3 R/B
OBJECT_ID      = 1977-057B
CENTER_NAME    = EARTH
REF_FRAME      = TEME
TIME_SYSTEM    = UTC
MEAN_ELEMENT_THEORY = SGP/SGP4

EPOCH          = 2025-12-01T05:03:18.364608
MEAN_MOTION    = 15.42534002
ECCENTRICITY   = .00064209
INCLINATION    = 97.5678
RA_OF_ASC_NODE = 138.0931
ARG_OF_PERICENTER = 281.3674
MEAN_ANOMALY   = 78.6852

EPHEMERIS_TYPE = 0
CLASSIFICATION_TYPE = U
NORAD_CAT_ID   = 10114
ELEMENT_SET_NO = 999
REV_AT_EPOCH   = 65313
BSTAR          = .3439114E-3
MEAN_MOTION_DOT = .14852E-3
MEAN_MOTION_DDOT = 0

CCSDS_OMM_VERS = 2.0
CREATION_DATE  = 
ORIGINATOR     = 

OBJECT_NAME    = SEASAT 1
OBJECT_ID      = 1978-064A
CENTER_NAME    = EARTH
REF_FRAME      = TEME
TIME_SYSTEM    = UTC
MEAN_ELEMENT_THEORY = SGP/SGP4

EPOCH          = 2025-12-01T06:25:56.402688
MEAN_MOTION    = 14.46040134
ECCENTRICITY   = .00019238
INCLINATION    = 108.0097
RA_OF_ASC_NODE = 278.9681
ARG_OF_PERICENTER = 250.5849
MEAN_ANOMALY   = 109.5089

EPHEMERIS_TYPE = 0
CLASSIFICATION_TYPE = U
NORAD_CAT_ID   = 10967
ELEMENT_SET_NO = 999
REV_AT_EPOCH   = 49228
BSTAR          = .18997757E-3
MEAN_MOTION_DOT = .541E-5
MEAN_MOTION_DDOT = 0

CCSDS_OMM_VERS = 2.0
CREATION_DATE  = 
ORIGINATOR     = 

OBJECT_NAME    = SL-14 R/B
OBJECT_ID      = 1979-011B
CENTER_NAME    = EARTH
REF_FRAME      = TEME
TIME_SYSTEM    = UTC
MEAN_ELEMENT_THEORY = SGP/SGP4

EPOCH          = 2025-12-01T06:01:15.391776
MEAN_MOTION    = 14.91748107
ECCENTRICITY   = .00169046
INCLINATION    = 82.5242
RA_OF_ASC_NODE = 189.9397
ARG_OF_PERICENTER = 31.0355
MEAN_ANOMALY   = 329.1859

EPHEMERIS_TYPE = 0
CLASSIFICATION_TYPE = U
NORAD_CAT_ID   = 11267
ELEMENT_SET_NO = 999
REV_AT_EPOCH   = 51410
BSTAR          = .70276309E-4
MEAN_MOTION_DOT = .735E-5
MEAN_MOTION_DDOT = 0

CCSDS_OMM_VERS = 2.0
CREATION_DATE  = 
ORIGINATOR     = 

OBJECT_NAME    = SL-8 R/B
OBJECT_ID      = 1979-089B
CENTER_NAME    = EARTH
REF_FRAME      = TEME
TIME_SYSTEM    = UTC
MEAN_ELEMENT_THEORY = SGP/SGP4

EPOCH          = 2025-12-01T06:03:51.425856
MEAN_MOTION    = 14.42270453
ECCENTRICITY   = .00145062
INCLINATION    = 74.0689
RA_OF_ASC_NODE = 273.2387
ARG_OF_PERICENTER = 112.5311
MEAN_ANOMALY   = 247.7382

EPHEMERIS_TYPE = 0
CLASSIFICATION_TYPE = U
NORAD_CAT_ID   = 11574
ELEMENT_SET_NO = 999
REV_AT_EPOCH   = 42191
BSTAR          = .11694228E-3
MEAN_MOTION_DOT = .36E-5
MEAN_MOTION_DDOT = 0

CCSDS_OMM_VERS = 2.0
CREATION_DATE  = 
ORIGINATOR     = 

OBJECT_NAME    = SL-14 R/B
OBJECT_ID      = 1980-005B
CENTER_NAME    = EARTH
REF_FRAME      = TEME
TIME_SYSTEM    = UTC
MEAN_ELEMENT_THEORY = SGP/SGP4

EPOCH          = 2025-12-01T06:23:38.333760
MEAN_MOTION    = 14.90769673
ECCENTRICITY   = .00169861
INCLINATION    = 82.5159
RA_OF_ASC_NODE = 40.5797
ARG_OF_PERICENTER = 128.5525
MEAN_ANOMALY   = 231.7220

EPHEMERIS_TYPE = 0
CLASSIFICATION_TYPE = U
NORAD_CAT_ID   = 11672
ELEMENT_SET_NO = 999
REV_AT_EPOCH   = 46182
BSTAR          = .76458464E-4
MEAN_MOTION_DOT = .779E-5
MEAN_MOTION_DDOT = 0

CCSDS_OMM_VERS = 2.0
CREATION_DATE  = 
ORIGINATOR     = 

OBJECT_NAME    = SL-8 R/B
OBJECT_ID      = 1981-003B
CENTER_NAME    = EARTH
REF_FRAME      = TEME
TIME_SYSTEM    = UTC
MEAN_ELEMENT_THEORY = SGP/SGP4

EPOCH          = 2025-12-01T04:22:19.372224
MEAN_MOTION    = 15.06495296
ECCENTRICITY   = .02812029
INCLINATION    = 82.9303
RA_OF_ASC_NODE = 20.8387
ARG_OF_PERICENTER = 160.1434
MEAN_ANOMALY   = 201.1013

EPHEMERIS_TYPE = 0
CLASSIFICATION_TYPE = U
NORAD_CAT_ID   = 12139
ELEMENT_SET_NO = 999
REV_AT_EPOCH   = 29982
BSTAR          = .67837769E-3
MEAN_MOTION_DOT = .25338E-3
MEAN_MOTION_DDOT = 0

CCSDS_OMM_VERS = 2.0
CREATION_DATE  = 
ORIGINATOR     = 

OBJECT_NAME    = SL-3 R/B
OBJECT_ID      = 1981-046B
CENTER_NAME    = EARTH
REF_FRAME      = TEME
TIME_SYSTEM    = UTC
MEAN_ELEMENT_THEORY = SGP/SGP4

EPOCH          = 2025-12-01T06:06:22.974048
MEAN_MOTION    = 15.39248730
ECCENTRICITY   = .00197107
INCLINATION    = 81.2343
RA_OF_ASC_NODE = 47.6726
ARG_OF_PERICENTER = 4.6147
MEAN_ANOMALY   = 355.5272

EPHEMERIS_TYPE = 0
CLASSIFICATION_TYPE = U
NORAD_CAT_ID   = 12465
ELEMENT_SET_NO = 999
REV_AT_EPOCH   = 42327
BSTAR          = .33071382E-3
MEAN_MOTION_DOT = .12994E-3
MEAN_MOTION_DDOT = 0

CCSDS_OMM_VERS = 2.0
CREATION_DATE  = 
ORIGINATOR     = 

OBJECT_NAME    = SL-3 R/B
OBJECT_ID      = 1981-103B
CENTER_NAME    = EARTH
REF_FRAME      = TEME
TIME_SYSTEM    = UTC
MEAN_ELEMENT_THEORY = SGP/SGP4

EPOCH          = 2025-12-01T06:32:13.515360
MEAN_MOTION    = 15.20014896
ECCENTRICITY   = .0011142
INCLINATION    = 81.1584
RA_OF_ASC_NODE = 328.7834
ARG_OF_PERICENTER = 257.6543
MEAN_ANOMALY   = 102.3441

EPHEMERIS_TYPE = 0
CLASSIFICATION_TYPE = U
NORAD_CAT_ID   = 12904
ELEMENT_SET_NO = 999
REV_AT_EPOCH   = 95827
BSTAR          = .40203967E-3
MEAN_MOTION_DOT = .8701E-4
MEAN_MOTION_DDOT = 0

CCSDS_OMM_VERS = 2.0
CREATION_DATE  = 
ORIGINATOR     = 

OBJECT_NAME    = SL-3 R/B
OBJECT_ID      = 1982-013B
CENTER_NAME    = EARTH
REF_FRAME      = TEME
TIME_SYSTEM    = UTC
MEAN_ELEMENT_THEORY = SGP/SGP4

EPOCH          = 2025-12-01T06:17:43.933920
MEAN_MOTION    = 15.20919308
ECCENTRICITY   = .00235313
INCLINATION    = 81.1740
RA_OF_ASC_NODE = 276.0417
ARG_OF_PERICENTER = 147.5212
MEAN_ANOMALY   = 212.7473

EPHEMERIS_TYPE = 0
CLASSIFICATION_TYPE = U
NORAD_CAT_ID   = 13068
ELEMENT_SET_NO = 999
REV_AT_EPOCH   = 38938
BSTAR          = .27639567E-3
MEAN_MOTION_DOT = .6185E-4
MEAN_MOTION_DDOT = 0

CCSDS_OMM_VERS = 2.0
CREATION_DATE  = 
ORIGINATOR     = 

OBJECT_NAME    = SL-3 R/B
OBJECT_ID      = 1982-039B
CENTER_NAME    = EARTH
REF_FRAME      = TEME
TIME_SYSTEM    = UTC
MEAN_ELEMENT_THEORY = SGP/SGP4

EPOCH          = 2025-12-01T05:42:11.111040
MEAN_MOTION    = 15.09415712
ECCENTRICITY   = .00305283
INCLINATION    = 81.1737
RA_OF_ASC_NODE = 329.3280
ARG_OF_PERICENTER = 291.1170
MEAN_ANOMALY   = 68.6792

EPHEMERIS_TYPE = 0
CLASSIFICATION_TYPE = U
NORAD_CAT_ID   = 13154
ELEMENT_SET_NO = 999
REV_AT_EPOCH   = 36678
BSTAR          = .22904593E-3
MEAN_MOTION_DOT = .3723E-4
MEAN_MOTION_DDOT = 0

