ATLAS CENTAUR R/B       
1 06155U 72065B   25334.90067941  .00001174  00000+0  16406-3 0  9992
2 06155  34.9996 164.5470 0034576 259.6120 100.0682 14.77356061826649
SL-8 R/B                
1 08459U 75112B   25335.07453456  .00000293  00000+0  10507-3 0  9993
2 08459  74.0595 200.3141 0016368 313.0233  46.9549 14.38133182617698
SL-3 R/B                
1 10114U 77057B   25335.21062922  .00014852  00000+0  34391-3 0  9997
2 10114  97.5678 138.0931 0006420 281.3674  78.6852 15.42534002653139
SEASAT 1                
1 10967U 78064A   25335.26801392  .00000541  00000+0  18998-3 0  9994
2 10967 108.0097 278.9681 0001923 250.5849 109.5089 14.46040134492283
SL-14 R/B               
1 11267U 79011B   25335.25087259  .00000735  00000+0  70276-4 0  9991
2 11267  82.5242 189.9397 0016904  31.0355 329.1859 14.91748107514105
SL-8 R/B                
1 11574U 79089B   25335.25267854  .00000360  00000+0  11694-3 0  9990
2 11574  74.0689 273.2387 0014506 112.5311 247.7382 14.42270453421918
SL-14 R/B               
1 11672U 80005B   25335.26641590  .00000779  00000+0  76458-4 0  9997
2 11672  82.5159  40.5797 0016986 128.5525 231.7220 14.90769673461829
SL-8 R/B                
1 12139U 81003B   25335.18216866  .00025338  00000+0  67838-3 0  9999
2 12139  82.9303  20.8387 0281202 160.1434 201.1013 15.06495296299820
SL-3 R/B                
1 12465U 81046B   25335.25443257  .00012994  00000+0  33071-3 0  9998
2 12465  81.2343  47.6726 0019710   4.6147 355.5272 15.39248730423272
SL-3 R/B                
1 12904U 81103B   25335.27237865  .00008701  00000+0  40204-3 0  9995
2 12904  81.1584 328.7834 0011142 257.6543 102.3441 15.20014896958273
SL-3 R/B                
1 13068U 82013B   25335.26231405  .00006185  00000+0  27640-3 0  9994
2 13068  81.1740 276.0417 0023531 147.5212 212.7473 15.20919308389389
SL-3 R/B                
1 13154U 82039B   25335.23762860  .00003723  00000+0  22905-3 0  9993
2 13154  81.1737 329.3280 0030528 291.1170  68.6792 15.09415712366782
